{"fetched_at":"2026-03-30T20:46:33Z","count":15425,"tles":[{"name":"STARLINK-36452","line1":"1 67405U 26005B   26087.80219288  .00019893  00000+0  73009-3 0  9997","line2":"2 67405  42.9996 129.6824 0001890 280.2622  79.8016 15.27596452 11622","category":"Starlink"}]}